IRIDIUM 155             
1 43573U 18061E   25148.47725190  .00000104  00000+0  30044-4 0  9992
2 43573  86.4000 217.4009 0002621  97.9918 262.1575 14.34218136358219
IRIDIUM 154             
1 43574U 18061F   25148.45822354  .00000078  00000+0  20942-4 0  9997
2 43574  86.4005 217.5233 0002344  94.3090 265.8374 14.34218113358266
IRIDIUM 163             
1 43575U 18061G   25148.43919546  .00000083  00000+0  22660-4 0  9991
2 43575  86.4003 217.4588 0002245  98.7887 261.3563 14.34218101358234
IRIDIUM 156             
1 43576U 18061H   25148.13475248  .00000077  00000+0  20464-4 0  9998
2 43576  86.4001 217.5927 0002700  95.4707 264.6797 14.34218047358180
IRIDIUM 164             
1 43577U 18061J   25148.88317708  .00000093  00000+0  26186-4 0  9992
2 43577  86.4004 217.3145 0002386  87.4009 272.7460 14.34218288358331
IRIDIUM 159             
1 43578U 18061K   25148.43285212  .00000082  00000+0  22080-4 0  9995
2 43578  86.4002 217.4473 0002099  92.1313 268.0123 14.34218270358231
IRIDIUM 180             
1 43922U 19002A   25148.29281182  .00000019  00000+0 -10054-6 0  9991
2 43922  86.3977 154.4903 0002264  92.4005 267.7450 14.34217702333823
IRIDIUM 176             
1 43923U 19002B   25148.73364229  .00000373  00000+0  55279-4 0  9993
2 43923  86.6102 154.3012 0002692 104.9612 255.1903 14.72257160342687
IRIDIUM 168             
1 43924U 19002C   25148.77484880  .00000078  00000+0  20698-4 0  9993
2 43924  86.3978 154.3553 0002336  90.4391 269.7072 14.34218101333873
IRIDIUM 173             
1 43925U 19002D   25148.76216405 -.00000035  00000+0 -19414-4 0  9998
2 43925  86.3980 154.2654 0002244  94.7705 265.3747 14.34217192333861
IRIDIUM 169             
1 43926U 19002E   25148.40015197  .00000293  00000+0  89417-4 0  9999
2 43926  86.4260 185.9921 0003486 111.1447 249.0124 14.38613566334901
IRIDIUM 172             
1 43927U 19002F   25148.40697421  .00000102  00000+0  29421-4 0  9994
2 43927  86.3977 154.4206 0002036  92.9618 267.1810 14.34217470333811
IRIDIUM 175             
1 43928U 19002G   25148.59267844  .00000943  00000+0  14567-3 0  9994
2 43928  86.1487 107.9906 0003336  83.6824 276.4773 14.72239952342650
IRIDIUM 171             
1 43929U 19002H   25148.45771945  .00000027  00000+0  25017-5 0  9999
2 43929  86.3986 154.6629 0002551  83.4705 276.6781 14.34217969333813
IRIDIUM 170             
1 43930U 19002J   25148.73981560  .00000370  00000+0  54693-4 0  9990
2 43930  86.6102 154.3036 0002895  94.3200 265.8348 14.72258294342692
IRIDIUM 167             
1 43931U 19002K   25148.45137757  .00000010  00000+0 -35991-5 0  9994
2 43931  86.3981 154.4210 0002690  87.3071 272.8433 14.34217541333816
IRIDIUM 181             
1 56726U 23068S   25148.18967552  .00000360  00000+0  10100-3 0  9991
2 56726  86.4541 217.5791 0002442  80.2245 279.9231 14.43309420106900
IRIDIUM 177             
1 56727U 23068T   25148.46662913  .00000516  00000+0  64402-4 0  9994
2 56727  86.1971 151.4875 0002681  86.2559 273.8969 14.80233665109455
IRIDIUM 174             
1 56728U 23068U   25148.59148901  .00000413  00000+0  61554-4 0  9996
2 56728  86.6111 154.4735 0002158  99.5053 260.6408 14.72275246109432
IRIDIUM 178             
1 56729U 23068V   25148.38813097  .00001116  00000+0  14348-3 0  9998
2 56729  86.6580 186.0929 0002256  92.7991 267.3489 14.80233450109448
IRIDIUM 179             
1 56730U 23068W   25148.85599939  .00001059  00000+0  13592-3 0  9994
2 56730  86.6823 193.7093 0002552  95.1660 264.9853 14.80230188109517
